NORAD_CAT_ID,OBJECT_NAME,OBJECT_TYPE,EPOCH,MEAN_MOTION,ECCENTRICITY,INCLINATION,RA_OF_ASC_NODE,ARG_OF_PERICENTER,MEAN_ANOMALY,BSTAR,MEAN_MOTION_DOT,MEAN_MOTION_DDOT,TLE_LINE0,TLE_LINE1,TLE_LINE2,SEMIMAJOR_AXIS,PERIOD,APOGEE,PERIGEE,DECAYED
54204.0,STARLINK-5241,PAYLOAD,2024-01-17 22:07:55,15.08839273,0.00013,53.2147,263.1817,111.6844,248.4286,0.0001393,1.93e-05,0.0,0 STARLINK-5241,1 54204U 22141AZ  24017.92217276  .00001930  00000-0  13930-3 0  9997,2 54204  53.2147 263.1817 0001300 111.6844 248.4286 15.08839273 67986,6917.883,95.438,540.647,538.848,0.0
54204.0,STARLINK-5241,PAYLOAD,2024-01-18 01:18:41,15.08842632,0.0001275,53.2148,262.587,109.9149,250.1981,0.00021853,3.192e-05,0.0,0 STARLINK-5241,1 54204U 22141AZ  24018.05465210  .00003192  00000-0  21853-3 0  9990,2 54204  53.2148 262.5870 0001275 109.9149 250.1981 15.08842632 68007,6917.872,95.437,540.619,538.855,0.0
54204.0,STARLINK-5241,PAYLOAD,2024-01-18 20:23:19,15.08844405,0.0001256,53.2145,259.0184,109.5378,250.575,0.00026459,3.926e-05,0.0,0 STARLINK-5241,1 54204U 22141AZ  24018.84953293  .00003926  00000-0  26459-3 0  9992,2 54204  53.2145 259.0184 0001256 109.5378 250.5750 15.08844405 68358,6917.867,95.437,540.601,538.863,0.0
54204.0,STARLINK-5241,PAYLOAD,2024-01-18 21:58:42,15.08846329,0.0001267,53.2144,258.721,109.4892,250.6237,0.00029584,4.424e-05,0.0,0 STARLINK-5241,1 54204U 22141AZ  24018.91577225  .00004424  00000-0  29584-3 0  9993,2 54204  53.2144 258.7210 0001267 109.4892 250.6237 15.08846329 68139,6917.861,95.437,540.603,538.85,0.0
54204.0,STARLINK-5241,PAYLOAD,2024-01-19 01:09:28,15.08851608,0.000127,53.2146,258.126,109.6738,250.4391,0.00038179,5.795e-05,0.0,0 STARLINK-5241,1 54204U 22141AZ  24019.04825009  .00005795  00000-0  38179-3 0  9996,2 54204  53.2146 258.1260 0001270 109.6738 250.4391 15.08851608 68152,6917.845,95.437,540.588,538.831,0.0
54204.0,STARLINK-5241,PAYLOAD,2024-01-19 20:14:06,15.08842957,0.0001326,53.2154,254.5539,108.8031,251.3105,0.00010335,1.357e-05,0.0,0 STARLINK-5241,1 54204U 22141AZ  24019.84313137  .00001357  00000-0  10335-3 0  9992,2 54204  53.2154 254.5539 0001326 108.8031 251.3105 15.08842957 68508,6917.871,95.437,540.654,538.819,0.0
54204.0,STARLINK-5241,PAYLOAD,2024-01-19 21:49:29,15.08843306,0.0001425,53.2159,254.2576,83.7229,276.3925,9.4037e-05,1.209e-05,0.0,0 STARLINK-5241,1 54204U 22141AZ  24019.90937312  .00001209  00000-0  94037-4 0  9994,2 54204  53.2159 254.2576 0001425  83.7229 276.3925 15.08843306 68282,6917.87,95.437,540.721,538.749,0.0
54204.0,STARLINK-5241,PAYLOAD,2024-01-20 21:40:16,15.08845651,0.0001415,53.2163,249.792,97.9889,262.1263,-0.00013183,-2.386e-05,0.0,0 STARLINK-5241,1 54204U 22141AZ  24020.90297135 -.00002386  00000-0 -13183-3 0  9999,2 54204  53.2163 249.7920 0001415  97.9889 262.1263 15.08845651 68437,6917.863,95.437,540.707,538.749,0.0
54204.0,STARLINK-5241,PAYLOAD,2024-01-21 00:51:03,15.08844145,0.0001372,53.2163,249.2023,90.2678,269.8471,1.9188e-06,-2.57e-06,0.0,0 STARLINK-5241,1 54204U 22141AZ  24021.03545376 -.00000257  00000-0  19188-5 0  9994,2 54204  53.2163 249.2023 0001372  90.2678 269.8471 15.08844145 68689,6917.868,95.437,540.682,538.784,0.0
54204.0,STARLINK-5241,PAYLOAD,2024-01-21 21:31:03,15.08840128,0.0001412,53.2161,245.3367,100.3645,259.7506,8.8257e-05,1.117e-05,0.0,0 STARLINK-5241,1 54204U 22141AZ  24021.89657339  .00001117  00000-0  88257-4 0  9998,2 54204  53.2161 245.3367 0001412 100.3645 259.7506 15.08840128 68580,6917.88,95.438,540.722,538.768,0.0
54204.0,STARLINK-5241,PAYLOAD,2024-01-22 19:46:28,15.08837093,0.0001368,53.2158,241.1742,98.3103,261.8045,6.2045e-05,7e-06,0.0,0 STARLINK-5241,1 54204U 22141AZ  24022.82393836  .00000700  00000-0  62045-4 0  9995,2 54204  53.2158 241.1742 0001368  98.3103 261.8045 15.08837093 68952,6917.889,95.438,540.701,538.808,0.0
54204.0,STARLINK-5241,PAYLOAD,2024-01-22 21:21:51,15.08837266,0.0001365,53.2159,240.8768,97.8327,262.282,5.9137e-05,6.53e-06,0.0,0 STARLINK-5241,1 54204U 22141AZ  24022.89017778  .00000653  00000-0  59137-4 0  9995,2 54204  53.2159 240.8768 0001365  97.8327 262.2820 15.08837266 68730,6917.889,95.438,540.698,538.809,0.0
54204.0,STARLINK-5241,PAYLOAD,2024-01-23 21:12:37,15.08844399,0.0001346,53.2156,236.4167,97.5467,262.5678,0.00010391,1.366e-05,0.0,0 STARLINK-5241,1 54204U 22141AZ  24023.88377274  .00001366  00000-0  10391-3 0  9995,2 54204  53.2156 236.4167 0001346  97.5467 262.5678 15.08844399 68887,6917.867,95.437,540.663,538.801,0.0
54204.0,STARLINK-5241,PAYLOAD,2024-01-24 19:28:02,15.08835964,0.0001387,53.2157,232.2526,104.4043,255.7103,3.481e-05,2.66e-06,0.0,0 STARLINK-5241,1 54204U 22141AZ  24024.81114195  .00000266  00000-0  34810-4 0  9991,2 54204  53.2157 232.2526 0001387 104.4043 255.7103 15.08835964 69251,6917.893,95.438,540.717,538.798,0.0
54204.0,STARLINK-5241,PAYLOAD,2024-01-24 21:03:26,15.08816753,0.0001522,53.2169,231.9552,85.578,274.5386,0.00028003,4.169e-05,0.0,0 STARLINK-5241,1 54204U 22141AZ  24024.87738737  .00004169  00000-0  28003-3 0  9993,2 54204  53.2169 231.9552 0001522  85.5780 274.5386 15.08816753 69030,6917.951,95.439,540.869,538.764,0.0
54204.0,STARLINK-5241,PAYLOAD,2024-01-25 19:18:49,15.08848305,0.0001354,53.2172,227.7879,91.6705,268.4442,-2.1619e-05,-6.32e-06,0.0,0 STARLINK-5241,1 54204U 22141AZ  24025.80473686 -.00000632  00000-0 -21619-4 0  9996,2 54204  53.2172 227.7879 0001354  91.6705 268.4442 15.08848305 69401,6917.855,95.437,540.657,538.783,0.0
54204.0,STARLINK-5241,PAYLOAD,2024-01-25 20:54:12,15.08843165,0.0001696,53.217,227.4877,66.5768,293.5403,5.8022e-05,6.36e-06,0.0,0 STARLINK-5241,1 54204U 22141AZ  24025.87097849  .00000636  00000-0  58022-4 0  9996,2 54204  53.2170 227.4877 0001696  66.5768 293.5403 15.08843165 69183,6917.871,95.437,540.909,538.562,0.0
54204.0,STARLINK-5241,PAYLOAD,2024-01-26 19:09:36,15.08841168,0.0001452,53.2163,223.3271,69.9738,290.141,0.00010073,1.316e-05,0.0,0 STARLINK-5241,1 54204U 22141AZ  24026.79833874  .00001316  00000-0  10073-3 0  9993,2 54204  53.2163 223.3271 0001452  69.9738 290.1410 15.08841168 69555,6917.877,95.437,540.746,538.737,0.0
54204.0,STARLINK-5241,PAYLOAD,2024-01-27 12:38:50,15.08844075,0.0001541,53.2164,220.065,71.2461,288.8698,6.6572e-05,7.72e-06,0.0,0 STARLINK-5241,1 54204U 22141AZ  24027.52697904  .00000772  00000-0  66572-4 0  9998,2 54204  53.2164 220.0650 0001541  71.2461 288.8698 15.08844075 69438,6917.868,95.437,540.799,538.667,0.0
54204.0,STARLINK-5241,PAYLOAD,2024-01-27 19:00:23,15.08843703,0.0001535,53.2164,218.8745,72.075,288.0409,5.7618e-05,6.29e-06,0.0,0 STARLINK-5241,1 54204U 22141AZ  24027.79193892  .00000629  00000-0  57618-4 0  9996,2 54204  53.2164 218.8745 0001535  72.0750 288.0409 15.08843703 69474,6917.869,95.437,540.796,538.672,0.0
54204.0,STARLINK-5241,PAYLOAD,2024-01-28 12:29:38,15.08841439,0.0001548,53.2165,215.604,74.2354,285.8809,3.8887e-05,3.31e-06,0.0,0 STARLINK-5241,1 54204U 22141AZ  24028.52057963  .00000331  00000-0  38887-4 0  9993,2 54204  53.2165 215.6040 0001548  74.2354 285.8809 15.08841439 69581,6917.876,95.437,540.812,538.67,0.0
54204.0,STARLINK-5241,PAYLOAD,2024-01-28 18:51:10,15.08840511,0.0001364,53.2163,214.4135,88.0378,272.077,2.5089e-05,1.11e-06,0.0,0 STARLINK-5241,1 54204U 22141AZ  24028.78553921  .00000111  00000-0  25089-4 0  9992,2 54204  53.2163 214.4135 0001364  88.0378 272.0770 15.08840511 69851,6917.879,95.438,540.687,538.8,0.0
54204.0,STARLINK-5241,PAYLOAD,2024-01-29 21:52:43,15.08842514,0.0001383,53.2164,209.3579,97.4967,262.6182,5.5716e-05,5.99e-06,0.0,0 STARLINK-5241,1 54204U 22141AZ  24029.91161557  .00000599  00000-0  55716-4 0  9998,2 54204  53.2164 209.3579 0001383  97.4967 262.6182 15.08842514 69796,6917.873,95.437,540.694,538.781,0.0
54204.0,STARLINK-5241,PAYLOAD,2024-01-30 12:11:12,15.08837922,0.000126,53.216,206.6794,90.9349,269.1788,1.9441e-05,2.2e-07,0.0,0 STARLINK-5241,1 54204U 22141AZ  24030.50778036  .00000022  00000-0  19441-4 0  9997,2 54204  53.2160 206.6794 0001260  90.9349 269.1788 15.08837922 70116,6917.887,95.438,540.623,538.88,0.0
54204.0,STARLINK-5241,PAYLOAD,2024-01-30 18:32:44,15.08840201,0.0001285,53.2163,205.4898,91.5989,268.5151,3.3331e-05,2.43e-06,0.0,0 STARLINK-5241,1 54204U 22141AZ  24030.77273852  .00000243  00000-0  33331-4 0  9991,2 54204  53.2163 205.4898 0001285  91.5989 268.5151 15.08840201 69923,6917.88,95.438,540.634,538.856,0.0
54204.0,STARLINK-5241,PAYLOAD,2024-01-31 12:01:59,15.08832657,0.0001417,53.2172,202.2202,91.5757,268.5397,3.4368e-05,2.59e-06,0.0,0 STARLINK-5241,1 54204U 22141AZ  24031.50138407  .00000259  00000-0  34368-4 0  9997,2 54204  53.2172 202.2202 0001417  91.5757 268.5397 15.08832657 70039,6917.903,95.438,540.748,538.788,0.0
54204.0,STARLINK-5241,PAYLOAD,2024-01-31 21:34:18,15.08832852,0.0001415,53.2172,200.436,90.7921,269.3233,3.0543e-05,1.98e-06,0.0,0 STARLINK-5241,1 54204U 22141AZ  24031.89882582  .00000198  00000-0  30543-4 0  9992,2 54204  53.2172 200.4360 0001415  90.7921 269.3233 15.08832852 70097,6917.902,95.438,540.746,538.788,0.0
54204.0,STARLINK-5241,PAYLOAD,2024-02-01 10:17:24,15.08830579,0.0001423,53.2172,198.0565,92.5483,267.5672,4.1662e-06,-2.22e-06,0.0,0 STARLINK-5241,1 54204U 22141AZ  24032.42875085 -.00000222  00000-0  41662-5 0  9996,2 54204  53.2172 198.0565 0001423  92.5483 267.5672 15.08830579 70178,6917.909,95.438,540.759,538.79,0.0
54204.0,STARLINK-5241,PAYLOAD,2024-02-01 19:49:42,15.08833259,0.0001462,53.2174,196.274,96.6661,263.4498,1.7383e-05,-1.1e-07,0.0,0 STARLINK-5241,1 54204U 22141AZ  24032.82619049 -.00000011  00000-0  17383-4 0  9994,2 54204  53.2174 196.2740 0001462  96.6661 263.4498 15.08833259 70237,6917.901,95.438,540.777,538.755,0.0
54204.0,STARLINK-5241,PAYLOAD,2024-02-02 10:08:10,15.08838358,0.0001382,53.2158,193.5949,96.1613,263.9537,0.00010707,1.416e-05,0.0,0 STARLINK-5241,1 54204U 22141AZ  24033.42234544  .00001416  00000-0  10707-3 0  9995,2 54204  53.2158 193.5949 0001382  96.1613 263.9537 15.08838358 70552,6917.885,95.438,540.706,538.794,0.0
